OBJECT_NAME,OBJECT_ID,EPOCH,MEAN_MOTION,ECCENTRICITY,INCLINATION,RA_OF_ASC_NODE,ARG_OF_PERICENTER,MEAN_ANOMALY,EPHEMERIS_TYPE,CLASSIFICATION_TYPE,NORAD_CAT_ID,ELEMENT_SET_NO,REV_AT_EPOCH,BSTAR,MEAN_MOTION_DOT,MEAN_MOTION_DDOT
APRIZESAT 2,2004-025A,2026-07-03T21:56:44.838240,14.38043501,.01051564,98.1030,349.9491,198.9223,160.8046,0,U,28366,999,15404,.984868E-4,.275E-5,0
SAUDICOMSAT 1,2004-025D,2026-07-04T06:30:52.350336,14.55487646,.00315214,98.5771,195.8639,333.2699,26.6872,0,U,28369,999,16661,.11222616E-3,.441E-5,0
SAUDICOMSAT 2,2004-025E,2026-07-04T00:45:39.220416,14.49990206,.00548586,98.6639,197.7542,207.6478,152.1795,0,U,28370,999,16254,.80818151E-4,.269E-5,0
APRIZESAT 1,2004-025G,2026-07-03T20:03:32.364864,14.51787039,.00457474,98.6304,196.0144,104.2953,256.3328,0,U,28372,999,16432,.95785256E-4,.341E-5,0
NANOSAT-1,2004-049B,2026-07-03T19:10:15.641760,14.80193523,.00029854,98.2298,321.8678,225.9048,134.1918,0,U,28493,999,15790,.16855698E-3,.1225E-4,0
SAUDICOMSAT 7,2007-012C,2026-07-04T04:11:46.518144,14.66127864,.00564668,98.3788,159.6549,142.1645,218.3548,0,U,31119,999,2492,.12979175E-3,.677E-5,0
SAUDICOMSAT 6,2007-012E,2026-07-03T20:26:08.448288,14.62576721,.0070381,98.4107,152.6789,275.0888,84.2283,0,U,31121,999,2262,.1173435E-3,.563E-5,0
SAUDICOMSAT 5,2007-012H,2026-07-04T04:37:26.600736,14.68180914,.00486764,98.3500,160.4166,72.6123,288.0396,0,U,31124,999,2609,.1610575E-3,.89E-5,0
SAUDICOMSAT 3,2007-012J,2026-07-03T22:04:11.524512,14.70735820,.00391318,98.3153,160.6851,1.1856,358.9436,0,U,31125,999,2728,.17942771E-3,.1053E-4,0
SAUDICOMSAT 4,2007-012L,2026-07-03T11:36:35.395200,14.64527296,.00627415,98.3993,157.3874,206.4516,153.3479,0,U,31127,999,2367,.10513374E-3,.519E-5,0
APRIZESAT 4,2009-041D,2026-07-03T18:39:53.805312,14.83901692,.00418934,98.1409,260.4287,267.6843,91.9574,0,U,35684,999,91382,.10555481E-3,.83E-5,0
APRIZESAT 3,2009-041F,2026-07-04T03:38:31.947360,14.96286521,.00617517,98.2080,339.1904,12.1152,348.1536,0,U,35686,999,91891,.1238024E-3,.1384E-4,0
S-NET D,2018-014G,2026-07-03T16:35:10.627872,15.16829519,.00070863,97.5346,89.3790,333.3040,26.7827,0,U,43186,999,46126,.32209837E-3,.627E-4,0
S-NET B,2018-014H,2026-07-04T03:57:06.693120,15.16805289,.00075624,97.5348,89.8363,325.2617,34.8121,0,U,43187,999,46133,.33422961E-3,.6505E-4,0
S-NET A,2018-014J,2026-07-04T00:28:24.168288,15.16841836,.00074563,97.5359,89.9046,326.8560,33.2205,0,U,43188,999,46131,.3403693E-3,.6633E-4,0
S-NET C,2018-014K,2026-07-03T16:57:50.186304,15.16791813,.00086395,97.5379,89.6708,318.2558,41.8015,0,U,43189,999,45981,.30072174E-3,.5845E-4,0
SALSAT,2020-068K,2026-07-03T22:54:35.117568,15.30040776,.00081593,97.8853,189.0427,236.6445,123.4014,0,U,46495,999,31792,.32069255E-3,.9251E-4,0
OOV-CUBE (TUBSAT-30),2024-128F,2026-07-04T05:19:58.322784,15.02838616,.00424879,61.9937,166.1691,137.5173,222.9219,0,U,60240,999,10867,.20571144E-3,.2609E-4,0
LPNTSAT-001 (IOD-1),2026-065A,2026-07-03T14:46:55.988256,15.18622478,.00150392,97.3995,64.7774,311.3963,48.5978,0,U,68408,999,1475,.1650386E-3,.3357E-4,0
