APRIZESAT 2             
1 28366U 04025A   26184.91440785  .00000275  00000+0  98487-4 0  9998
2 28366  98.1030 349.9491 0105156 198.9223 160.8046 14.38043501154047
SAUDICOMSAT 1           
1 28369U 04025D   26185.27143924  .00000441  00000+0  11223-3 0  9993
2 28369  98.5771 195.8639 0031521 333.2699  26.6872 14.55487646166616
SAUDICOMSAT 2           
1 28370U 04025E   26185.03170394  .00000269  00000+0  80818-4 0  9995
2 28370  98.6639 197.7542 0054858 207.6478 152.1795 14.49990206162544
APRIZESAT 1             
1 28372U 04025G   26184.83579126  .00000341  00000+0  95785-4 0  9990
2 28372  98.6304 196.0144 0045747 104.2953 256.3328 14.51787039164320
NANOSAT-1               
1 28493U 04049B   26184.79879215  .00001225  00000+0  16856-3 0  9990
2 28493  98.2298 321.8678 0002985 225.9048 134.1918 14.80193523157900
SAUDICOMSAT 7           
1 31119U 07012C   26185.17484396  .00000677  00000+0  12979-3 0  9999
2 31119  98.3788 159.6549 0056466 142.1645 218.3548 14.66127864 24922
SAUDICOMSAT 6           
1 31121U 07012E   26184.85148667  .00000563  00000+0  11734-3 0  9996
2 31121  98.4107 152.6789 0070381 275.0888  84.2283 14.62576721 22624
SAUDICOMSAT 5           
1 31124U 07012H   26185.19266899  .00000890  00000+0  16106-3 0  9996
2 31124  98.3500 160.4166 0048676  72.6123 288.0396 14.68180914 26099
SAUDICOMSAT 3           
1 31125U 07012J   26184.91957783  .00001053  00000+0  17943-3 0  9997
2 31125  98.3153 160.6851 0039131   1.1856 358.9436 14.70735820 27282
SAUDICOMSAT 4           
1 31127U 07012L   26184.48374300  .00000519  00000+0  10513-3 0  9991
2 31127  98.3993 157.3874 0062741 206.4516 153.3479 14.64527296 23672
APRIZESAT 4             
1 35684U 09041D   26184.77770608  .00000830  00000+0  10555-3 0  9992
2 35684  98.1409 260.4287 0041893 267.6843  91.9574 14.83901692913820
APRIZESAT 3             
1 35686U 09041F   26185.15175865  .00001384  00000+0  12380-3 0  9994
2 35686  98.2080 339.1904 0061751  12.1152 348.1536 14.96286521918910
S-NET D                 
1 43186U 18014G   26184.69109523  .00006270  00000+0  32210-3 0  9997
2 43186  97.5346  89.3790 0007086 333.3040  26.7827 15.16829519461269
S-NET B                 
1 43187U 18014H   26185.16466080  .00006505  00000+0  33423-3 0  9993
2 43187  97.5348  89.8363 0007562 325.2617  34.8121 15.16805289461335
S-NET A                 
1 43188U 18014J   26185.01972417  .00006633  00000+0  34037-3 0  9998
2 43188  97.5359  89.9046 0007456 326.8560  33.2205 15.16841836461315
S-NET C                 
1 43189U 18014K   26184.70683086  .00005845  00000+0  30072-3 0  9994
2 43189  97.5379  89.6708 0008639 318.2558  41.8015 15.16791813459811
SALSAT                  
1 46495U 20068K   26184.95457312  .00009251  00000+0  32069-3 0  9990
2 46495  97.8853 189.0427 0008159 236.6445 123.4014 15.30040776317924
OOV-CUBE (TUBSAT-30)    
1 60240U 24128F   26185.22220281  .00002609  00000+0  20571-3 0  9994
2 60240  61.9937 166.1691 0042487 137.5173 222.9219 15.02838616108670
LPNTSAT-001 (IOD-1)     
1 68408U 26065A   26184.61592579  .00003357  00000+0  16504-3 0  9996
2 68408  97.3995  64.7774 0015039 311.3963  48.5978 15.18622478 14751
